#dP2022 10  7  6  0  0.00000000      96 __u+U ITR00 EXT  IAC
## 2230 453600.00000000   900.00000000 59859 0.2500000000000
+  117   C06C07C08C09C10C11C12C13C14C16C19C20C21C22C23C24C25
+        C26C27C28C29C30C32C33C34C35C36C37C38C39C40C41C42C43
+        C44C45C46E01E02E03E04E05E07E08E09E10E11E12E13E14E15
+        E18E19E21E24E25E26E27E30E31E33E34E36G01G02G04G05G06
+        G07G08G09G10G11G12G13G14G15G16G17G18G19G20G21G22G23
+        G24G25G26G27G28G29G30G31G32J02J03J04R01R02R03R04R05
+        R07R08R09R11R12R13R14R15R17R18R19R20R21R24R25  0  0
++        10  9 11 10 10  8  8  8 10 10  8  8  7  9  9  9  9
++         7  9  9  9 11 10  8  7 10  9  8  7 10 11 10  7  9
++         8 10  9  8  9  8  9  8  8  8  8  8  8  8  8  8  8
++         8  9  9  6  8  8  7  8  9  8  8  8  8  8  7  9  7
++         8  8  7  8  8 10  7  8  7  9  8  8  7  8  9  8  8
++         7  9  8  7  7  9  9  8  8 10  9 11  9  7  9  8  8
++         9  9  9  8  8  7  9  8 10  9  8  9 10  8 11  0  0
%c M  cc GPS ccc cccc cccc cccc cccc ccccc ccccc ccccc ccccc
%c cc cc ccc ccc cccc cccc cccc cccc ccccc ccccc ccccc ccccc
%f  0.0000000  0.000000000  0.00000000000  0.000000000000000
%f  0.0000000  0.000000000  0.00000000000  0.000000000000000
%i    0    0    0    0      0      0      0      0         0
%i    0    0    0    0      0      0      0      0         0
/* IAC                                ULTRA-RAPID PREDICTION
/* S/V CLOCKS ARE ALIGNED TO GNSS TIME                      
/* G:C1WC2W R:C1PC2P E:C1XC5X C:C2IC6I J:C1CC2S             
/* PCV:IGS14_2218 OL/AL:FES2004  NONE     YN ORB:CoN CLK:CoN
*  2022 10 07 17 30  0.00000000
PC06  -4013.440308  37906.510875 -17762.538274    902.114098
PC07 -10501.015952  25459.107678  31961.569666   -244.593293
PC08 -20110.934957  33551.252215 -15991.857132    489.334714
PC09   2064.661099  40961.725009  -8179.048410   -841.502602
PC10  -1377.127383  27276.955051  32450.992019     86.901098
PC11   9655.495383 -15081.982599 -21321.674829   -364.974654
PC12  16832.537634   4459.083388 -21772.204360   -490.987103
PC13 -12503.829841  33666.485804 -22208.396354    100.724671
PC14  18418.436713  -9939.845531  18493.011977    705.028609
PC16  -6493.397637  35498.902455 -21393.193369    131.491591
PC19  -8526.987584  14196.075909 -22443.877818   -823.666255
PC20 -24147.617413   5110.721614 -12995.073352    869.605825
PC21  26341.717239   7769.251669  -4995.417342   -554.262520
PC22  12744.799508  15543.982827 -19375.543417   -864.058264
PC23  -1844.510644 -19854.130338 -19511.587874   -444.406370
PC24  21703.771487 -12625.885008  12142.123165   -501.815666
PC25  12956.446659 -23889.151210  -6293.563488      6.355447
PC26  17129.574503   3428.900955  21744.068798    -18.184612
PC27 -17459.863315 -13528.671980  17041.259910     32.381408
PC28 -10731.067538 -25683.085187   1922.846574     21.632543
PC29  -2190.317404  23124.622466  15465.442807     23.679707
PC30 -14592.321397   6392.491160  22906.871973      0.383605
PC32 -26349.799184  -7634.033319   5107.258822   -769.503926
PC33   8593.207927 -14239.019165  22405.611670   -853.172038
PC34  14101.355121  -7655.664073 -22841.383807     11.558425
PC35  10782.692671  25718.139369   -513.520868     31.228726
PC36 -13925.097084  23499.952485   5759.357515   -573.435710
PC37 -16325.972694  -5038.356920 -22050.499008   -433.811182
PC38 -24212.352650  33700.306540  -7992.349438     29.475443
PC39  -8208.407043  32363.126768 -25619.177078     -0.584410
PC40 -15675.073061  18623.165945  34395.969200     -5.584367
PC41 -12190.589816 -15647.457050  19672.593148   -150.395796
PC42  24806.724317  -4440.574284  12037.845858   -431.592709
PC43   2904.026568 -22721.470316 -15956.049905     18.325438
PC44  18023.404898  13007.335017 -16867.818576     74.138937
PC45   2076.030863  19601.677953  19768.434776     -6.950721
PC46 -21555.660894  14152.050700 -10716.517441     -4.777961
PE01 -10196.613925  18665.817705  20596.406478   -542.418324
PE02   9985.997039 -18654.916485 -20686.606424    329.318013
PE03  -2193.037550 -20898.194524  20834.912532   -607.414206
PE04  19104.679766  21695.325283  -6362.128183  -1131.644476
PE05  16389.271277  -7794.715734  23379.968924   -136.775716
PE07 -25142.858097  -9622.132061 -12300.249650   -711.393009
PE08 -19226.156397 -21590.107492   6327.854292   -611.482103
PE09  25142.557233   9752.964324  12212.388327   -685.047102
PE10  12494.673436  14283.716792 -22728.682279   -482.054467
PE11  15917.702707   2444.594758 -24846.458697   1895.035718
PE12   7414.371275  22965.712504 -17139.532608   -209.705882
PE13 -15675.584192  -3373.634010  24882.811003    430.662589
PE14 -15596.991706   4197.989537  17316.373699     21.090491
PE15  -7275.699207 -23112.613405  17000.459162    715.561672
PE18  22742.680176  -2732.098505 -22769.350974   -888.617721
PE19   -412.234709  19688.659433 -22098.277436  -4328.542813
PE21 -25212.778447  14045.394429   6590.184737   -762.089012
PE24  26579.503547   -143.144376  12996.578936   -878.393556
PE25  25370.539535 -13881.099517  -6284.818513   -589.596666
PE26 -14702.258938  18906.743362  17405.557577  -1700.253171
PE27 -26966.273875   1039.379726 -12164.857457   -409.850046
PE30 -11976.915958 -12996.804812 -23748.464188   -897.520693
PE31  12818.534828  12472.070657  23598.812828   -505.215637
PE33  -5373.828335  29097.457161    873.245622   -454.474775
PE34   5212.837665 -29118.874403   -700.856832     -8.292615
PE36  14804.924669 -18144.197495 -18101.217669   -442.483960
PG01 -13500.022267  19065.815521  11997.557882    271.320331
PG02  13492.758359 -16895.068022 -14926.013565   -643.282492
PG04 -11463.375560   9980.844461 -21781.248700   -107.262094
PG05  25782.174607  -5917.970937  -3208.469629    -99.503475
PG06   8470.846778  16486.871085 -18929.840744    484.362375
PG07  -5116.076077  25713.019329   2365.830675    300.976833
PG08 -18521.726712    828.174016  19110.294828    -87.814628
PG09   -198.391005  18491.849841 -19129.025699   -286.338171
PG10  -8017.021279 -13138.472249  21829.821055     -6.507774
PG11  14246.900935   5141.704195 -21816.699464    -23.316466
PG12  22901.682704 -10512.846556  -8492.220477   -289.517258
PG13  19867.657916   8634.146781  15322.077991    401.720639
PG14   5421.298853  14541.237763  21567.717910    -97.318468
PG15  18507.064521  -3207.358191  18445.074708    -22.827850
PG16 -25386.567210  -1544.389120  -8708.539609   -525.831803
PG17  11026.732942  22260.596776   9745.182166    666.509382
PG18   4949.998285 -25803.912155   3328.636885     22.816264
PG19  17572.626581  20067.987840  -1423.291329    220.712039
PG20  21344.922504   2523.408595 -15443.110434    480.277257
PG21 -15447.430048  10560.019608  19163.770357    158.385249
PG22 -18715.891573 -18668.037026  -3010.076157    341.452957
PG23   4055.052412 -16068.174132  20715.048654     -0.827279
PG24  14195.975395 -15968.732030  15183.123466    108.572579
PG25  13064.338526 -16040.573490 -16790.802015    379.973955
PG26 -19804.841629  -6341.747486 -16787.637700    231.575887
PG27 -21709.722339 -10615.111778  11245.487842    201.689860
PG28  14450.443722  11241.302302  19658.342464    331.747251
PG29   2547.472821 -17445.346256 -19880.964252   -557.787341
PG30   3011.452235  23227.565440  12371.611853   -537.225620
PG31  -9812.028452 -15333.335312 -19323.172480   -195.986187
PG32 -14737.353203 -21158.809822   6933.252409   -256.141159
PJ02 -30804.277165  26936.360256  15305.174909     -6.685192
PJ03 -26470.705742  25539.763098  25684.119845     -2.562354
PJ04 -30980.016029  20580.822068 -14708.806204    111.678639
PR01 -13312.490301 -13186.621056  17297.991179     15.899242
PR02 -23974.993757  -8818.324438    -81.525370    -22.898184
PR03 -19700.643404   1040.858716 -16170.018690     65.064701
PR04  -4484.923712   9840.332010 -23081.561166    160.327075
PR05  13051.452343  13437.637744 -17294.099841    100.854881
PR07  19109.575138  -1559.961958  16825.838902     42.177574
PR08   4297.122707 -10070.308603  23087.680927    -67.545090
PR09  15862.748697   -830.646468  20004.169417     80.773214
PR11  14286.846775 -18679.666369  -9885.439559     25.221643
PR12  -1373.640993 -12710.111689 -22040.579092     21.825238
PR13 -14729.481293   -392.850881 -20831.889541    -27.579183
PR14 -20566.858186  13600.021444  -6485.333985     24.219823
PR15 -13752.450495  18563.515988  10833.646539     93.338242
PR17  -9063.704604   7703.235509  22581.558605    567.109309
PR18  -2339.115190  21773.922833  13061.916780     46.000586
PR19   4374.101133  25051.078686  -2089.365078   -206.419586
PR20  10453.316859  12523.731706 -19589.446654    -79.773443
PR21   8563.141733  -9227.214783 -22177.495424   -339.715750
PR24 -11277.188363 -11493.190855  19792.950569    118.969202
PR25   3029.496078 -22148.495008 -12265.487888     14.029194
EOF
